{
  "type": "FeatureCollection",
  "generator": "Manuales Transcaribe Data",
  "copyright": "The data included in this document is from www.openstreetmap.org. The data is made available under ODbL.",
  "timestamp": "2025-01-27T00:00:00.000Z",
  "features": [
    {
      "type": "Feature",
      "properties": {
        "nombre_paradero": "Teatro Heredia",
        "coordenadas": "10.427365510389881, -75.55132943822083",
        "rutas": "C017, T102",
        "network": "Transcaribe",
        "tipos_ruta": "Trocales, Complementarias",
        "fuente": "csv_2025",
        "highway": "bus_stop",
        "public_transport": "platform",
        "name": "Teatro Heredia"
      },
      "geometry": {
        "type": "Point",
        "coordinates": [
          -75.55132943822083,
          10.427365510389881
        ]
      }
    },
    {
      "type": "Feature",
      "properties": {
        "nombre_paradero": "Boquete Paz Concordia San Diego",
        "coordenadas": "10.42774195310738, -75.54495003413196",
        "rutas": "C017, T102",
        "network": "Transcaribe",
        "tipos_ruta": "Trocales, Complementarias",
        "fuente": "csv_2026",
        "highway": "bus_stop",
        "public_transport": "platform",
        "name": "Boquete Paz Concordia San Diego"
      },
      "geometry": {
        "type": "Point",
        "coordinates": [
          -75.54495003413196,
          10.42774195310738
        ]
      }
    },
    {
      "type": "Feature",
      "properties": {
        "nombre_paradero": "Parque De La Marina",
        "coordenadas": "10.420540194362168, -75.55092049322448",
        "rutas": "C001, C017, C018. T102",
        "network": "Transcaribe",
        "tipos_ruta": "Trocales, Complementarias",
        "fuente": "csv_2027",
        "highway": "bus_stop",
        "public_transport": "platform",
        "name": "Parque De La Marina"
      },
      "geometry": {
        "type": "Point",
        "coordinates": [
          -75.55092049322448,
          10.420540194362168
        ]
      }
    },
    {
      "type": "Feature",
      "properties": {
        "nombre_paradero": "Cancha Bambino",
        "coordenadas": "10.422032452232136, -75.55355298538244",
        "rutas": "C017, T102",
        "network": "Transcaribe",
        "tipos_ruta": "Trocales, Complementarias",
        "fuente": "csv_2028",
        "highway": "bus_stop",
        "public_transport": "platform",
        "name": "Cancha Bambino"
      },
      "geometry": {
        "type": "Point",
        "coordinates": [
          -75.55355298538244,
          10.422032452232136
        ]
      }
    },
    {
      "type": "Feature",
      "properties": {
        "nombre_paradero": "El Boquetillo",
        "coordenadas": "10.428948974223543, -75.54897836644501",
        "rutas": "C017, T102",
        "network": "Transcaribe",
        "tipos_ruta": "Trocales, Complementarias",
        "fuente": "csv_2029",
        "highway": "bus_stop",
        "public_transport": "platform",
        "name": "El Boquetillo"
      },
      "geometry": {
        "type": "Point",
        "coordinates": [
          -75.54897836644501,
          10.428948974223543
        ]
      }
    },
    {
      "type": "Feature",
      "properties": {
        "nombre_paradero": "Frente Parque Apolo",
        "coordenadas": "10.430146293308239, -75.54456005207349",
        "rutas": "C017, T102",
        "network": "Transcaribe",
        "tipos_ruta": "Trocales, Complementarias",
        "fuente": "csv_2030",
        "highway": "bus_stop",
        "public_transport": "platform",
        "name": "Frente Parque Apolo"
      },
      "geometry": {
        "type": "Point",
        "coordinates": [
          -75.54456005207349,
          10.430146293308239
        ]
      }
    },
    {
      "type": "Feature",
      "properties": {
        "nombre_paradero": "Colegio Modelo De La Costa",
        "coordenadas": "10.432221892382454, -75.54401865065861",
        "rutas": "C017, T102",
        "network": "Transcaribe",
        "tipos_ruta": "Trocales, Complementarias",
        "fuente": "csv_2031",
        "highway": "bus_stop",
        "public_transport": "platform",
        "name": "Colegio Modelo De La Costa"
      },
      "geometry": {
        "type": "Point",
        "coordinates": [
          -75.54401865065861,
          10.432221892382454
        ]
      }
    },
    {
      "type": "Feature",
      "properties": {
        "nombre_paradero": "Costa Azul",
        "coordenadas": "10.432938575942808, -75.54299131035806",
        "rutas": "C017, T102",
        "network": "Transcaribe",
        "tipos_ruta": "Trocales, Complementarias",
        "fuente": "csv_2032",
        "highway": "bus_stop",
        "public_transport": "platform",
        "name": "Costa Azul"
      },
      "geometry": {
        "type": "Point",
        "coordinates": [
          -75.54299131035806,
          10.432938575942808
        ]
      }
    },
    {
      "type": "Feature",
      "properties": {
        "nombre_paradero": "Droqueria Inglesa",
        "coordenadas": "10.433392288465003, -75.54190769791603",
        "rutas": "C017, T102",
        "network": "Transcaribe",
        "tipos_ruta": "Trocales, Complementarias",
        "fuente": "csv_2033",
        "highway": "bus_stop",
        "public_transport": "platform",
        "name": "Droqueria Inglesa"
      },
      "geometry": {
        "type": "Point",
        "coordinates": [
          -75.54190769791603,
          10.433392288465003
        ]
      }
    },
    {
      "type": "Feature",
      "properties": {
        "nombre_paradero": "Entrada El cabrero",
        "coordenadas": "10.434373571424626, -75.5400408804417",
        "rutas": "C017, T102",
        "network": "Transcaribe",
        "tipos_ruta": "Trocales, Complementarias",
        "fuente": "csv_2034",
        "highway": "bus_stop",
        "public_transport": "platform",
        "name": "Entrada El cabrero"
      },
      "geometry": {
        "type": "Point",
        "coordinates": [
          -75.5400408804417,
          10.434373571424626
        ]
      }
    },
    {
      "type": "Feature",
      "properties": {
        "nombre_paradero": "El Cabrero",
        "coordenadas": "10.433941386851767, -75.54074322209505",
        "rutas": "C017, T102",
        "network": "Transcaribe",
        "tipos_ruta": "Trocales, Complementarias",
        "fuente": "csv_2035",
        "highway": "bus_stop",
        "public_transport": "platform",
        "name": "El Cabrero"
      },
      "geometry": {
        "type": "Point",
        "coordinates": [
          -75.54074322209505,
          10.433941386851767
        ]
      }
    },
    {
      "type": "Feature",
      "properties": {
        "nombre_paradero": "Bellavista Hotel",
        "coordenadas": "10.435561566263834, -75.53818987532055",
        "rutas": "C017, T102",
        "network": "Transcaribe",
        "tipos_ruta": "Trocales, Complementarias",
        "fuente": "csv_2036",
        "highway": "bus_stop",
        "public_transport": "platform",
        "name": "Bellavista Hotel"
      },
      "geometry": {
        "type": "Point",
        "coordinates": [
          -75.53818987532055,
          10.435561566263834
        ]
      }
    },
    {
      "type": "Feature",
      "properties": {
        "nombre_paradero": "Kr 1 entre Cl 47 y 46",
        "coordenadas": "10.436458730376039, -75.5366524389351",
        "rutas": "C017, T102",
        "network": "Transcaribe",
        "tipos_ruta": "Trocales, Complementarias",
        "fuente": "csv_2037",
        "highway": "bus_stop",
        "public_transport": "platform",
        "name": "Kr 1 entre Cl 47 y 46"
      },
      "geometry": {
        "type": "Point",
        "coordinates": [
          -75.5366524389351,
          10.436458730376039
        ]
      }
    },
    {
      "type": "Feature",
      "properties": {
        "nombre_paradero": "Datt",
        "coordenadas": "10.435857829565661, -75.53746061009701",
        "rutas": "C017, T102",
        "network": "Transcaribe",
        "tipos_ruta": "Trocales, Complementarias",
        "fuente": "csv_2038",
        "highway": "bus_stop",
        "public_transport": "platform",
        "name": "Datt"
      },
      "geometry": {
        "type": "Point",
        "coordinates": [
          -75.53746061009701,
          10.435857829565661
        ]
      }
    },
    {
      "type": "Feature",
      "properties": {
        "nombre_paradero": "Edificio Altamar",
        "coordenadas": "10.437120106585615, -75.53365136157727",
        "rutas": "C017, T102",
        "network": "Transcaribe",
        "tipos_ruta": "Trocales, Complementarias",
        "fuente": "csv_2039",
        "highway": "bus_stop",
        "public_transport": "platform",
        "name": "Edificio Altamar"
      },
      "geometry": {
        "type": "Point",
        "coordinates": [
          -75.53365136157727,
          10.437120106585615
        ]
      }
    },
    {
      "type": "Feature",
      "properties": {
        "nombre_paradero": "Terrazas De San Sebastian",
        "coordenadas": "10.438455470675908, -75.53169768032562",
        "rutas": "C017, T102",
        "network": "Transcaribe",
        "tipos_ruta": "Trocales, Complementarias",
        "fuente": "csv_2040",
        "highway": "bus_stop",
        "public_transport": "platform",
        "name": "Terrazas De San Sebastian"
      },
      "geometry": {
        "type": "Point",
        "coordinates": [
          -75.53169768032562,
          10.438455470675908
        ]
      }
    },
    {
      "type": "Feature",
      "properties": {
        "nombre_paradero": "Global Center",
        "coordenadas": "10.43924156307048, -75.53048868237637",
        "rutas": "C017, T102",
        "network": "Transcaribe",
        "tipos_ruta": "Trocales, Complementarias",
        "fuente": "csv_2041",
        "highway": "bus_stop",
        "public_transport": "platform",
        "name": "Global Center"
      },
      "geometry": {
        "type": "Point",
        "coordinates": [
          -75.53048868237637,
          10.43924156307048
        ]
      }
    },
    {
      "type": "Feature",
      "properties": {
        "nombre_paradero": "Bomba Terpel",
        "coordenadas": "10.441424841186162, -75.52727346271556",
        "rutas": "C017",
        "network": "Transcaribe",
        "tipos_ruta": "Trocales, Complementarias",
        "fuente": "csv_2042",
        "highway": "bus_stop",
        "public_transport": "platform",
        "name": "Bomba Terpel"
      },
      "geometry": {
        "type": "Point",
        "coordinates": [
          -75.52727346271556,
          10.441424841186162
        ]
      }
    },
    {
      "type": "Feature",
      "properties": {
        "nombre_paradero": "Parque De Las Americas",
        "coordenadas": "10.442603303117663, -75.52341655142352",
        "rutas": "C017",
        "network": "Transcaribe",
        "tipos_ruta": "Complementarias",
        "fuente": "csv_2043",
        "highway": "bus_stop",
        "public_transport": "platform",
        "name": "Parque De Las Americas"
      },
      "geometry": {
        "type": "Point",
        "coordinates": [
          -75.52341655142352,
          10.442603303117663
        ]
      }
    },
    {
      "type": "Feature",
      "properties": {
        "nombre_paradero": "Calle 67",
        "coordenadas": "10.442877632483617, -75.52027300245801",
        "rutas": "C017",
        "network": "Transcaribe",
        "tipos_ruta": "Complementarias",
        "fuente": "csv_2044",
        "highway": "bus_stop",
        "public_transport": "platform",
        "name": "Calle 67"
      },
      "geometry": {
        "type": "Point",
        "coordinates": [
          -75.52027300245801,
          10.442877632483617
        ]
      }
    },
    {
      "type": "Feature",
      "properties": {
        "nombre_paradero": "Puente Crespito",
        "coordenadas": "10.44295676590741, -75.5187548721556",
        "rutas": "C017",
        "network": "Transcaribe",
        "tipos_ruta": "Complementarias",
        "fuente": "csv_2045",
        "highway": "bus_stop",
        "public_transport": "platform",
        "name": "Puente Crespito"
      },
      "geometry": {
        "type": "Point",
        "coordinates": [
          -75.5187548721556,
          10.44295676590741
        ]
      }
    },
    {
      "type": "Feature",
      "properties": {
        "nombre_paradero": "Vivero Rincon Del Mar",
        "coordenadas": "10.443083379343614, -75.51845982916394",
        "rutas": "T102",
        "network": "Transcaribe",
        "tipos_ruta": "Trocales",
        "fuente": "csv_2046",
        "highway": "bus_stop",
        "public_transport": "platform",
        "name": "Vivero Rincon Del Mar"
      },
      "geometry": {
        "type": "Point",
        "coordinates": [
          -75.51845982916394,
          10.443083379343614
        ]
      }
    },
    {
      "type": "Feature",
      "properties": {
        "nombre_paradero": "Gimnasio-Estetica-Peluqueria",
        "coordenadas": "10.442972592589761, -75.52079335100689",
        "rutas": "T102",
        "network": "Transcaribe",
        "tipos_ruta": "Trocales",
        "fuente": "csv_2047",
        "highway": "bus_stop",
        "public_transport": "platform",
        "name": "Gimnasio-Estetica-Peluqueria"
      },
      "geometry": {
        "type": "Point",
        "coordinates": [
          -75.52079335100689,
          10.442972592589761
        ]
      }
    },
    {
      "type": "Feature",
      "properties": {
        "nombre_paradero": "Calle 64",
        "coordenadas": "10.442983143709508, -75.52303567774335",
        "rutas": "T102",
        "network": "Transcaribe",
        "tipos_ruta": "Trocales",
        "fuente": "csv_2048",
        "highway": "bus_stop",
        "public_transport": "platform",
        "name": "Calle 64"
      },
      "geometry": {
        "type": "Point",
        "coordinates": [
          -75.52303567774335,
          10.442983143709508
        ]
      }
    },
    {
      "type": "Feature",
      "properties": {
        "nombre_paradero": "Corales de India",
        "coordenadas": "10.442882908044453, -75.52509024984874",
        "rutas": "T102",
        "network": "Transcaribe",
        "tipos_ruta": "Trocales",
        "fuente": "csv_2049",
        "highway": "bus_stop",
        "public_transport": "platform",
        "name": "Corales de India"
      },
      "geometry": {
        "type": "Point",
        "coordinates": [
          -75.52509024984874,
          10.442882908044453
        ]
      }
    },
    {
      "type": "Feature",
      "properties": {
        "nombre_paradero": "Carrera 2",
        "coordenadas": "10.44380085453212, -75.51784292109045",
        "rutas": "T102",
        "network": "Transcaribe",
        "tipos_ruta": "Trocales",
        "fuente": "csv_2050",
        "highway": "bus_stop",
        "public_transport": "platform",
        "name": "Carrera 2"
      },
      "geometry": {
        "type": "Point",
        "coordinates": [
          -75.51784292109045,
          10.44380085453212
        ]
      }
    },
    {
      "type": "Feature",
      "properties": {
        "nombre_paradero": "Iglesia Cristo Rey",
        "coordenadas": "10.444666042968876, -75.51773026831182",
        "rutas": "C017",
        "network": "Transcaribe",
        "tipos_ruta": "Complementarias",
        "fuente": "csv_2051",
        "highway": "bus_stop",
        "public_transport": "platform",
        "name": "Iglesia Cristo Rey"
      },
      "geometry": {
        "type": "Point",
        "coordinates": [
          -75.51773026831182,
          10.444666042968876
        ]
      }
    },
    {
      "type": "Feature",
      "properties": {
        "nombre_paradero": "Carrera 4",
        "coordenadas": "10.445805555810162, -75.51762297995121",
        "rutas": "T102",
        "network": "Transcaribe",
        "tipos_ruta": "Trocales",
        "fuente": "csv_2052",
        "highway": "bus_stop",
        "public_transport": "platform",
        "name": "Carrera 4"
      },
      "geometry": {
        "type": "Point",
        "coordinates": [
          -75.51762297995121,
          10.445805555810162
        ]
      }
    },
    {
      "type": "Feature",
      "properties": {
        "nombre_paradero": "Carrera 6",
        "coordenadas": "10.44708222724562, -75.51749959833654",
        "rutas": "C017",
        "network": "Transcaribe",
        "tipos_ruta": "Complementarias",
        "fuente": "csv_2053",
        "highway": "bus_stop",
        "public_transport": "platform",
        "name": "Carrera 6"
      },
      "geometry": {
        "type": "Point",
        "coordinates": [
          -75.51749959833654,
          10.44708222724562
        ]
      }
    },
    {
      "type": "Feature",
      "properties": {
        "nombre_paradero": "Esquina Carrera 6",
        "coordenadas": "10.447651979739526, -75.51743522532018",
        "rutas": "T102",
        "network": "Transcaribe",
        "tipos_ruta": "Trocales",
        "fuente": "csv_2054",
        "highway": "bus_stop",
        "public_transport": "platform",
        "name": "Esquina Carrera 6"
      },
      "geometry": {
        "type": "Point",
        "coordinates": [
          -75.51743522532018,
          10.447651979739526
        ]
      }
    },
    {
      "type": "Feature",
      "properties": {
        "nombre_paradero": "Ferreteria Crespo 70",
        "coordenadas": "10.4486332177237, -75.51732257254153",
        "rutas": "C017",
        "network": "Transcaribe",
        "tipos_ruta": "Complementarias",
        "fuente": "csv_2055",
        "highway": "bus_stop",
        "public_transport": "platform",
        "name": "Ferreteria Crespo 70"
      },
      "geometry": {
        "type": "Point",
        "coordinates": [
          -75.51732257254153,
          10.4486332177237
        ]
      }
    },
    {
      "type": "Feature",
      "properties": {
        "nombre_paradero": "Tienda Glorimar",
        "coordenadas": "10.449134386452492, -75.51723137743502",
        "rutas": "T102",
        "network": "Transcaribe",
        "tipos_ruta": "Trocales",
        "fuente": "csv_2056",
        "highway": "bus_stop",
        "public_transport": "platform",
        "name": "Tienda Glorimar"
      },
      "geometry": {
        "type": "Point",
        "coordinates": [
          -75.51723137743502,
          10.449134386452492
        ]
      }
    },
    {
      "type": "Feature",
      "properties": {
        "nombre_paradero": "Kr 9 - Beach Club",
        "coordenadas": "10.450264622924216, -75.51583030861694",
        "rutas": "T102",
        "network": "Transcaribe",
        "tipos_ruta": "Trocales",
        "fuente": "csv_2057",
        "highway": "bus_stop",
        "public_transport": "platform",
        "name": "Kr 9 - Beach Club"
      },
      "geometry": {
        "type": "Point",
        "coordinates": [
          -75.51583030861694,
          10.450264622924216
        ]
      }
    },
    {
      "type": "Feature",
      "properties": {
        "nombre_paradero": "Playa Azul",
        "coordenadas": "10.457681172294885, -75.50892256177079",
        "rutas": "C017",
        "network": "Transcaribe",
        "tipos_ruta": "Complementarias",
        "fuente": "csv_2058",
        "highway": "bus_stop",
        "public_transport": "platform",
        "name": "Playa Azul"
      },
      "geometry": {
        "type": "Point",
        "coordinates": [
          -75.50892256177079,
          10.457681172294885
        ]
      }
    },
    {
      "type": "Feature",
      "properties": {
        "nombre_paradero": "Frente a las Americas",
        "coordenadas": "10.458293338310288, -75.50780385363778",
        "rutas": "C017",
        "network": "Transcaribe",
        "tipos_ruta": "Complementarias",
        "fuente": "csv_2059",
        "highway": "bus_stop",
        "public_transport": "platform",
        "name": "Frente a las Americas"
      },
      "geometry": {
        "type": "Point",
        "coordinates": [
          -75.50780385363778,
          10.458293338310288
        ]
      }
    },
    {
      "type": "Feature",
      "properties": {
        "nombre_paradero": "Murano",
        "coordenadas": "10.464512521835504, -75.50175019914373",
        "rutas": "C017",
        "network": "Transcaribe",
        "tipos_ruta": "Complementarias",
        "fuente": "csv_2060",
        "highway": "bus_stop",
        "public_transport": "platform",
        "name": "Murano"
      },
      "geometry": {
        "type": "Point",
        "coordinates": [
          -75.50175019914373,
          10.464512521835504
        ]
      }
    },
    {
      "type": "Feature",
      "properties": {
        "nombre_paradero": "Morros Vitri",
        "coordenadas": "10.466677229743743, -75.49972930703251",
        "rutas": "C017",
        "network": "Transcaribe",
        "tipos_ruta": "Complementarias",
        "fuente": "csv_2061",
        "highway": "bus_stop",
        "public_transport": "platform",
        "name": "Morros Vitri"
      },
      "geometry": {
        "type": "Point",
        "coordinates": [
          -75.49972930703251,
          10.466677229743743
        ]
      }
    },
    {
      "type": "Feature",
      "properties": {
        "nombre_paradero": "Boquilla 2",
        "coordenadas": "10.468815307642759, -75.49789787355671",
        "rutas": "C017",
        "network": "Transcaribe",
        "tipos_ruta": "Complementarias",
        "fuente": "csv_2062",
        "highway": "bus_stop",
        "public_transport": "platform",
        "name": "Boquilla 2"
      },
      "geometry": {
        "type": "Point",
        "coordinates": [
          -75.49789787355671,
          10.468815307642759
        ]
      }
    },
    {
      "type": "Feature",
      "properties": {
        "nombre_paradero": "Boquilla 1",
        "coordenadas": "10.476418228544398, -75.49188932826152",
        "rutas": "C017",
        "network": "Transcaribe",
        "tipos_ruta": "Complementarias",
        "fuente": "csv_2063",
        "highway": "bus_stop",
        "public_transport": "platform",
        "name": "Boquilla 1"
      },
      "geometry": {
        "type": "Point",
        "coordinates": [
          -75.49188932826152,
          10.476418228544398
        ]
      }
    },
    {
      "type": "Feature",
      "properties": {
        "nombre_paradero": "Frente a Serena del Mar",
        "coordenadas": "10.505694465408014, -75.47351190477386",
        "rutas": "C017",
        "network": "Transcaribe",
        "tipos_ruta": "Complementarias",
        "fuente": "csv_2064",
        "highway": "bus_stop",
        "public_transport": "platform",
        "name": "Frente a Serena del Mar"
      },
      "geometry": {
        "type": "Point",
        "coordinates": [
          -75.47351190477386,
          10.505694465408014
        ]
      }
    },
    {
      "type": "Feature",
      "properties": {
        "nombre_paradero": "Terminal del Norte",
        "coordenadas": "10.492539721200199, -75.4772257127086",
        "rutas": "C017",
        "network": "Transcaribe",
        "tipos_ruta": "Complementarias",
        "fuente": "csv_2065",
        "highway": "bus_stop",
        "public_transport": "platform",
        "name": "Terminal del Norte"
      },
      "geometry": {
        "type": "Point",
        "coordinates": [
          -75.4772257127086,
          10.492539721200199
        ]
      }
    },
    {
      "type": "Feature",
      "properties": {
        "nombre_paradero": "Ramblas",
        "coordenadas": "10.51514633419766, -75.46936147587687",
        "rutas": "C017",
        "network": "Transcaribe",
        "tipos_ruta": "Complementarias",
        "fuente": "csv_2066",
        "highway": "bus_stop",
        "public_transport": "platform",
        "name": "Ramblas"
      },
      "geometry": {
        "type": "Point",
        "coordinates": [
          -75.46936147587687,
          10.51514633419766
        ]
      }
    },
    {
      "type": "Feature",
      "properties": {
        "nombre_paradero": "Frente a Barcelona de Indias",
        "coordenadas": "10.515557731791317, -75.46901815312296",
        "rutas": "C017",
        "network": "Transcaribe",
        "tipos_ruta": "Complementarias",
        "fuente": "csv_2067",
        "highway": "bus_stop",
        "public_transport": "platform",
        "name": "Frente a Barcelona de Indias"
      },
      "geometry": {
        "type": "Point",
        "coordinates": [
          -75.46901815312296,
          10.515557731791317
        ]
      }
    },
    {
      "type": "Feature",
      "properties": {
        "nombre_paradero": "Barcelona de Indias",
        "coordenadas": "10.519883901862261, -75.46759193307948",
        "rutas": "C017",
        "network": "Transcaribe",
        "tipos_ruta": "Complementarias",
        "fuente": "csv_2068",
        "highway": "bus_stop",
        "public_transport": "platform",
        "name": "Barcelona de Indias"
      },
      "geometry": {
        "type": "Point",
        "coordinates": [
          -75.46759193307948,
          10.519883901862261
        ]
      }
    },
    {
      "type": "Feature",
      "properties": {
        "nombre_paradero": "Barceloneta",
        "coordenadas": "10.52309760271968, -75.46612000477371",
        "rutas": "C017",
        "network": "Transcaribe",
        "tipos_ruta": "Complementarias",
        "fuente": "csv_2069",
        "highway": "bus_stop",
        "public_transport": "platform",
        "name": "Barceloneta"
      },
      "geometry": {
        "type": "Point",
        "coordinates": [
          -75.46612000477371,
          10.52309760271968
        ]
      }
    }
  ]
} 